{
    "links": {
        "self": "http://www.neowsapp.com/rest/v1/neo/54016316?api_key=iIulBulltgU6a56xZRHN4H3l9WmuAYTsLGpBGhQ2"
    },
    "id": "54016316",
    "neo_reference_id": "54016316",
    "name": "(2020 FG3)",
    "designation": "2020 FG3",
    "nasa_jpl_url": "http://ssd.jpl.nasa.gov/sbdb.cgi?sstr=54016316",
    "absolute_magnitude_h": 24.84,
    "estimated_diameter": {
        "kilometers": {
            "estimated_diameter_min": 0.0286124454,
            "estimated_diameter_max": 0.0639793729
        },
        "meters": {
            "estimated_diameter_min": 28.6124453783,
            "estimated_diameter_max": 63.9793728683
        },
        "miles": {
            "estimated_diameter_min": 0.0177789438,
            "estimated_diameter_max": 0.0397549269
        },
        "feet": {
            "estimated_diameter_min": 93.8728552949,
            "estimated_diameter_max": 209.9060856814
        }
    },
    "is_potentially_hazardous_asteroid": false,
    "close_approach_data": [
        {
            "close_approach_date": "2020-03-17",
            "close_approach_date_full": "2020-Mar-17 12:40",
            "epoch_date_close_approach": 1584448800000,
            "relative_velocity": {
                "kilometers_per_second": "11.434308267",
                "kilometers_per_hour": "41163.509761186",
                "miles_per_hour": "25577.4041624436"
            },
            "miss_distance": {
                "astronomical": "0.0326259142",
                "lunar": "12.6914806238",
                "kilometers": "4880767.271122754",
                "miles": "3032768.1509478452"
            },
            "orbiting_body": "Earth"
        }
    ],
    "orbital_data": {
        "orbit_id": "1",
        "orbit_determination_date": "2020-03-23 21:42:09",
        "first_observation_date": "2020-03-22",
        "last_observation_date": "2020-03-24",
        "data_arc_in_days": 2,
        "observations_used": 41,
        "orbit_uncertainty": "8",
        "minimum_orbit_intersection": ".0316332",
        "jupiter_tisserand_invariant": "3.629",
        "epoch_osculation": "2458931.5",
        "eccentricity": ".5311469095773621",
        "semi_major_axis": "1.999351996292102",
        "inclination": "12.1336517326661",
        "ascending_node_longitude": "4.195564924744057",
        "orbital_period": "1032.600468701543",
        "perihelion_distance": ".9374023623042225",
        "perihelion_argument": "134.4610260939164",
        "aphelion_distance": "3.061301630279981",
        "perihelion_time": "2458895.622916310783",
        "mean_anomaly": "12.50798398761062",
        "mean_motion": ".3486343565703458",
        "equinox": "J2000",
        "orbit_class": {
            "orbit_class_type": "APO",
            "orbit_class_description": "Near-Earth asteroid orbits which cross the Earth’s orbit similar to that of 1862 Apollo",
            "orbit_class_range": "a (semi-major axis) > 1.0 AU; q (perihelion) < 1.017 AU"
        }
    },
    "is_sentry_object": false
}